[{"OBJECT_NAME":"HAISHAO-1","OBJECT_ID":"2024-228A","EPOCH":"2026-03-09T21:27:33.935328","MEAN_MOTION":15.65560642,"ECCENTRICITY":0.00052692,"INCLINATION":42.9815,"RA_OF_ASC_NODE":238.9951,"ARG_OF_PERICENTER":331.3833,"MEAN_ANOMALY":28.6742,"EPHEMERIS_TYPE":0,"CLASSIFICATION_TYPE":"U","NORAD_CAT_ID":62190,"ELEMENT_SET_NO":999,"REV_AT_EPOCH":7202,"BSTAR":0.00042908913,"MEAN_MOTION_DOT":0.00044178,"MEAN_MOTION_DDOT":0},{"OBJECT_NAME":"SZ-20 MODULE","OBJECT_ID":"2025-082C","EPOCH":"2026-03-09T16:40:36.867360","MEAN_MOTION":15.64075536,"ECCENTRICITY":0.00095477,"INCLINATION":41.4776,"RA_OF_ASC_NODE":206.9715,"ARG_OF_PERICENTER":333.0027,"MEAN_ANOMALY":27.0316,"EPHEMERIS_TYPE":0,"CLASSIFICATION_TYPE":"U","NORAD_CAT_ID":67481,"ELEMENT_SET_NO":999,"REV_AT_EPOCH":27762,"BSTAR":0.00029135549,"MEAN_MOTION_DOT":0.00028207,"MEAN_MOTION_DDOT":0}]
